[{"OBJECT_NAME":"GAOFEN-9 05","OBJECT_ID":"2020-058A","EPOCH":"2026-03-10T00:01:50.876256","MEAN_MOTION":15.30293976,"ECCENTRICITY":0.0010522,"INCLINATION":97.2228,"RA_OF_ASC_NODE":111.963,"ARG_OF_PERICENTER":91.0204,"MEAN_ANOMALY":269.2242,"EPHEMERIS_TYPE":0,"CLASSIFICATION_TYPE":"U","NORAD_CAT_ID":46232,"ELEMENT_SET_NO":999,"REV_AT_EPOCH":30843,"BSTAR":0.00025120304,"MEAN_MOTION_DOT":7.299e-5,"MEAN_MOTION_DDOT":0},{"OBJECT_NAME":"STARLINK-31958","OBJECT_ID":"2024-106C","EPOCH":"2026-03-09T01:20:23.651520","MEAN_MOTION":15.27599767,"ECCENTRICITY":0.00028317,"INCLINATION":43.0014,"RA_OF_ASC_NODE":321.5884,"ARG_OF_PERICENTER":258.5288,"MEAN_ANOMALY":101.5246,"EPHEMERIS_TYPE":0,"CLASSIFICATION_TYPE":"U","NORAD_CAT_ID":59924,"ELEMENT_SET_NO":999,"REV_AT_EPOCH":10059,"BSTAR":4.0548466e-5,"MEAN_MOTION_DOT":8.54e-6,"MEAN_MOTION_DDOT":0}]
